GLOBALSTAR M063         
1 26081U 00008A   24172.47107137 -.00000046  00000+0  53285-3 0  9997
2 26081  51.9975 344.1913 0004222 350.9461  24.0070 11.86156125114654
GLOBALSTAR M062         
1 26082U 00008B   24172.25744039 -.00000089  00000+0  69674-4 0  9999
2 26082  51.9853  80.0846 0007653  58.2458  84.5073 12.43438473451590
GLOBALSTAR M060         
1 26083U 00008C   24172.63600416  .00000069  00000+0  15875-2 0  9991
2 26083  52.0040 347.8307 0004214 109.1271 327.2597 12.17634284108323
GLOBALSTAR M064         
1 26084U 00008D   24172.51347162 -.00000078  00000+0  79784-4 0  9997
2 26084  52.0037  87.1706 0001930  67.5667 292.5370 11.88519908124092
GLOBALSTAR M065         
1 31571U 07020A   24172.52175704 -.00000053  00000+0  28623-3 0  9995
2 31571  51.9887 247.0296 0009959 224.5973 239.1160 12.61971879787747
GLOBALSTAR M069         
1 31573U 07020C   24172.44360833 -.00000052  00000+0  28726-3 0  9990
2 31573  51.9925 203.0885 0000546 244.7227 253.2999 12.62275853788868
GLOBALSTAR M072         
1 31574U 07020D   24172.12980309 -.00000093  00000+0  57352-4 0  9995
2 31574  52.0097 299.9845 0000946 139.3976  31.3833 12.62273476787090
GLOBALSTAR M071         
1 31576U 07020F   24172.36370160 -.00000056  00000+0  26483-3 0  9990
2 31576  52.0044 208.5015 0000020 285.3389  88.2503 12.62268791450043
